STARLINK-4117           
1 53169U 22083AP  22309.51555855 -.00003365  00000+0 -19343-3 0  9995
2 53169  53.2154 226.6954 0001821  52.0482 308.0675 15.08833156 17998
STARLINK-4095           
1 53170U 22083AQ  22309.51463516 -.00003302  00000+0 -18955-3 0  9998
2 53170  53.2170 236.6923 0002015  45.5439 314.5718 15.08823383 17856
STARLINK-4052           
1 53171U 22083AR  22309.29888061 -.00003064  00000+0 -17322-4 0  9993
2 53171  53.2123 218.9328 0008083 278.3712  81.6391 15.73171787 17448
STARLINK-4299           
1 53172U 22083AS  22309.51094460 -.00004728  00000+0 -27921-3 0  9994
2 53172  53.2144 236.7083 0001967  49.3939 310.7224 15.08829667 17850
STARLINK-4300           
1 53173U 22083AT  22309.58335648 -.01053485  00000+0 -23126-1 0  9994
2 53173  53.2172 218.6534 0001144  74.5284 215.2964 15.46364494  1309
STARLINK-4205           
1 53174U 22083AU  22309.21971815 -.00001207  00000+0 -57742-4 0  9995
2 53174  53.2192 253.0174 0001728  46.6133 313.5003 15.08844491 16968
STARLINK-4292           
1 53175U 22083AV  22309.28228493 -.00000032  00000+0  16095-4 0  9990
2 53175  53.2193 252.7391 0002258  38.6168 321.4985 15.08835959 17614
STARLINK-4294           
1 53176U 22083AW  22309.49349195 -.00003272  00000+0 -18759-3 0  9995
2 53176  53.2168 226.7813 0001853  38.5759 321.5365 15.08832308 17991
STARLINK-4298           
1 53177U 22083AX  22309.58335648 -.01052756  00000+0 -22639-1 0  9996
2 53177  53.2173 218.6787 0001129  98.2720 196.2528 15.46954205  1304
STARLINK-4280           
1 53178U 22083AY  22309.14336479  .00000956  00000+0  78160-4 0  9997
2 53178  53.2157 243.3590 0002345  30.1652 329.9475 15.08838209 17085
STARLINK-4276           
1 53179U 22083AZ  22309.91668981 -.00115854  00000+0 -83008-3 0  9991
2 53179  53.2111 215.8759 0008371 274.2512 349.1651 15.73206795 18170
STARLINK-4258           
1 53180U 22083BA  22309.58335648  .00126284  00000+0  89388-3 0  9991
2 53180  53.2111 217.5321 0008476 274.3830 255.2967 15.73075213  1309
STARLINK-4273           
1 53181U 22083BB  22309.91668981  .00092353  00000+0  65383-3 0  9996
2 53181  53.2151 215.8727 0008696 274.9233 345.3775 15.73203957 18171
STARLINK-4278           
1 53182U 22083BC  22309.58335648 -.01053455  00000+0 -22423-1 0  9990
2 53182  53.2173 218.6910 0001093  92.6779 203.9897 15.47249955 18101
STARLINK-4268           
1 53183U 22083BD  22309.58335648  .00153257  00000+0  10827-2 0  9995
2 53183  53.2111 217.5265 0008286 274.0660 258.6020 15.73028107 18121
STARLINK-4257           
1 53184U 22083BE  22309.58335648  .00085182  00000+0  60712-3 0  9996
2 53184  53.2154 217.5221 0008391 274.4525 265.2086 15.73083381 18123
STARLINK-4391           
1 53189U 22084A   22309.77603794 -.00006791  00000+0 -52487-3 0  9994
2 53189  97.6581   9.0491 0002409  57.7699 302.3758 15.01242273 16670
STARLINK-4332           
1 53190U 22084B   22309.40599124  .00000566  00000+0  48626-4 0  9990
2 53190  97.6572   8.6602 0001954 117.5076 242.6347 15.01260134 16619
STARLINK-4369           
1 53191U 22084C   22309.63717345 -.00002149  00000+0 -16284-3 0  9998
2 53191  97.6543   8.8951 0002093  67.6095 292.5351 15.01241848 16641
STARLINK-4375           
1 53192U 22084D   22309.63532464 -.00015346  00000+0 -11936-2 0  9997
2 53192  97.6522   8.8906 0001475  84.5834 275.5558 15.01233450 16641
STARLINK-4351           
1 53193U 22084E   22309.77419534 -.00002186  00000+0 -16573-3 0  9996
2 53193  97.6578   9.0434 0001691  42.8572 317.2784 15.01249681 16679
STARLINK-4382           
1 53194U 22084F   22309.77233728 -.00007710  00000+0 -59669-3 0  9997
2 53194  97.6557   9.0355 0002363  59.0328 301.1128 15.01237143 16668
STARLINK-4404           
1 53195U 22084G   22309.78892755 -.00002832  00000+0 -22067-3 0  9992
2 53195  97.6586   9.1506 0001800  70.0951 290.0466 15.00445038 16675
STARLINK-4407           
1 53196U 22084H   22309.63557507 -.00002535  00000+0 -19288-3 0  9991
2 53196  97.6574   8.8967 0001510  67.7839 292.3545 15.01253062 16641
STARLINK-4403           
1 53197U 22084J   22309.76309195 -.00004008  00000+0 -30774-3 0  9994
2 53197  97.6554   9.0144 0002000 104.7517 255.3929 15.01245974 16660
STARLINK-4385           
1 53198U 22084K   22309.63346202 -.00001284  00000+0 -95420-4 0  9994
2 53198  97.6595   8.8909 0001600  91.8944 268.2464 15.01261682 16646
STARLINK-4395           
1 53199U 22084L   22309.69457944 -.00002497  00000+0 -18994-3 0  9994
2 53199  97.6576   8.9464 0001770 111.6500 248.4913 15.01250968 16655
STARLINK-4417           
1 53200U 22084M   22309.76494783 -.00004653  00000+0 -35815-3 0  9994
2 53200  97.6552   9.0152 0001706  88.7694 271.3725 15.01235987 16666
STARLINK-4405           
1 53201U 22084N   22309.75752243 -.00007888  00000+0 -61069-3 0  9995
2 53201  97.6558   9.0077 0002063 100.2221 259.9236 15.01231650 16664
STARLINK-4411           
1 53202U 22084P   22309.80720438 -.00005164  00000+0 -40661-3 0  9993
2 53202  97.6540   9.4162 0000164 332.8616  27.2599 15.00424699 16693
STARLINK-4409           
1 53203U 22084Q   22309.68717554 -.00002145  00000+0 -16251-3 0  9999
2 53203  97.6550   8.9357 0002333 135.7399 224.4012 15.01247213 16656
STARLINK-4410           
1 53204U 22084R   22309.69272145 -.00005987  00000+0 -46207-3 0  9994
2 53204  97.6560   8.9423 0001520 113.0821 247.0563 15.01244740 16652
STARLINK-4397           
1 53205U 22084S   22309.68346213 -.00002362  00000+0 -17940-3 0  9998
2 53205  97.6505   8.9297 0001789 127.9918 232.1468 15.01252854 16653
STARLINK-4408           
1 53206U 22084T   22309.68742889 -.00003057  00000+0 -23360-3 0  9993
2 53206  97.6538   8.9365 0001901 118.9972 241.1443 15.01242311 16652
STARLINK-4413           
1 53207U 22084U   22309.61496501 -.00002967  00000+0 -22658-3 0  9992
2 53207  97.6551   8.8659 0001976 120.5132 239.6288 15.01248465 16646
STARLINK-4425           
1 53208U 22084V   22309.42241374 -.00002356  00000+0 -17895-3 0  9997
2 53208  97.6545   8.6758 0002126 124.0251 236.1175 15.01250528 16232
STARLINK-4423           
1 53209U 22084W   22309.74667687 -.00001963  00000+0 -14833-3 0  9994
2 53209  97.6543   8.9952 0001854 123.7830 236.3571 15.01246608 16669
STARLINK-4427           
1 53210U 22084X   22309.61866889 -.00002907  00000+0 -22187-3 0  9997
2 53210  97.6556   8.8695 0001788 103.1378 257.0046 15.01249080 16645
STARLINK-4419           
1 53211U 22084Y   22309.74270572 -.00004545  00000+0 -34956-3 0  9997
2 53211  97.6567   8.9872 0002211 142.9897 217.1480 15.01247572 16660
STARLINK-4416           
1 53212U 22084Z   22309.21318304 -.00003927  00000+0 -30132-3 0  9991
2 53212  97.6545   8.4696 0001709 121.1017 239.0375 15.01258243 16584
STARLINK-4414           
1 53213U 22084AA  22309.80380609 -.00005180  00000+0 -39924-3 0  9995
2 53213  97.6555   9.0511 0002112 106.0861 254.0596 15.01236467 16673
STARLINK-4353           
1 53214U 22084AB  22309.41130750 -.00003595  00000+0 -27555-3 0  9998
2 53214  97.6531   8.6631 0002439 121.0805 239.0659 15.01244413 16610
STARLINK-4335           
1 53215U 22084AC  22309.80196152 -.00006554  00000+0 -50644-3 0  9993
2 53215  97.6553   9.0491 0001728 106.7407 253.4007 15.01238742 16673
STARLINK-4376           
1 53216U 22084AD  22309.34093698 -.00000894  00000+0 -65008-4 0  9996
2 53216  97.6565   8.5956 0001787 113.3123 246.8289 15.01267623 16220
STARLINK-4379           
1 53217U 22084AE  22309.19861658  .00000072  00000+0  10169-4 0  9993
2 53217  97.6571   8.4564 0001420  74.7788 285.3593 15.01268217 16207
STARLINK-4384           
1 53218U 22084AF  22309.40574591 -.00000399  00000+0 -26443-4 0  9991
2 53218  97.6560   8.6591 0001949 123.0928 237.0484 15.01259836 16242
STARLINK-4373           
1 53219U 22084AG  22309.59460482 -.00000708  00000+0 -50517-4 0  9998
2 53219  97.6562   8.8489 0001905  74.8682 285.2753 15.01248374 16277
STARLINK-4363           
1 53220U 22084AH  22309.80010699 -.00007877  00000+0 -60968-3 0  9999
2 53220  97.6563   9.0503 0001436 115.6532 244.4840 15.01240208 16303
STARLINK-4377           
1 53221U 22084AJ  22309.25946820 -.00003577  00000+0 -27405-3 0  9995
2 53221  97.6589   8.5239 0001813  61.1884 298.9522 15.01259234 16216
STARLINK-4381           
1 53222U 22084AK  22309.79826948 -.00003980  00000+0 -30560-3 0  9997
2 53222  97.6559   9.0470 0001631  94.3128 265.8283 15.01244339 16671
STARLINK-4354           
1 53223U 22084AL  22309.59091738 -.00003114  00000+0 -23812-3 0  9998
2 53223  97.6597   8.8520 0003707  50.6346 309.5206 15.01230367 16262
STARLINK-4356           
1 53224U 22084AM  22309.59646328 -.00003469  00000+0 -26579-3 0  9996
2 53224  97.6559   8.8470 0001177  71.4020 288.7332 15.01236662 16277
STARLINK-4358           
1 53225U 22084AN  22309.25392700  .00002042  00000+0  16350-3 0  9992
2 53225  97.6601   8.5217 0002039  56.2536 303.8882 15.01261364 16213
STARLINK-4359           
1 53226U 22084AP  22309.79110781 -.00003739  00000+0 -28673-3 0  9996
2 53226  97.6575   9.0502 0002466  58.6940 301.4526 15.01247940 16309
STARLINK-4366           
1 53227U 22084AQ  22309.18381242  .00009614  00000+0  75257-3 0  9998
2 53227  97.6587   8.4654 0002190  64.9515 295.1936 15.01235835 16209
STARLINK-4365           
1 53228U 22084AR  22309.58904769 -.00001025  00000+0 -75251-4 0  9993
2 53228  97.6605   8.8528 0001679  48.4177 311.7191 15.01251373 16266
STARLINK-4367           
1 53229U 22084AS  22309.78346157 -.00003088  00000+0 -23599-3 0  9995
2 53229  97.6584   9.0553 0003310  37.1904 322.9549 15.01243285 16298
STARLINK-4364           
1 53230U 22084AT  22309.78529117 -.00004977  00000+0 -38336-3 0  9999
2 53230  97.6607   9.0478 0002491  61.2847 298.8628 15.01241642 16671
STARLINK-4370           
1 53231U 22084AU  22309.44647218 -.00001079  00000+0 -79407-4 0  9991
2 53231  97.6594   8.7212 0002368  65.3324 294.8146 15.01257819 16244
STARLINK-4371           
1 53232U 22084AV  22309.78159253 -.00005554  00000+0 -42828-3 0  9994
2 53232  97.6580   9.0561 0002329  48.7313 311.4111 15.01243842 16295
